start=new Date('2022-10-08T00:00:00.000Z').valueOf();
sats=[{"NORAD_CAT_ID":"48326","PERIAPSIS":"546.062","INCLINATION":"53.0540","MEAN_MOTION_DOT":"0.00001427","SITE":"AFETR","BSTAR":"0.00011470000000","ELEMENT_SET_NO":"999","APOAPSIS":"548.388","MEAN_MOTION_DDOT":"0.0000000000000","GP_ID":"214435423","EPOCH":"2022-10-07T18:46:05.238048","CLASSIFICATION_TYPE":"U","DECAY_DATE":null,"PERIOD":"95.592","SEMIMAJOR_AXIS":"6925.360","EPHEMERIS_TYPE":"0","OBJECT_ID":"2021-036BC","CENTER_NAME":"EARTH","REF_FRAME":"TEME","MEAN_MOTION":"15.06396188","RCS_SIZE":"MEDIUM","LAUNCH_DATE":"2021-04-29","COUNTRY_CODE":"US","ARG_OF_PERICENTER":"64.2764","OBJECT_NAME":"STARLINK-2498","MEAN_ELEMENT_THEORY":"SGP4","ECCENTRICITY":"0.00016790","TIME_SYSTEM":"UTC","REV_AT_EPOCH":"7979","RA_OF_ASC_NODE":"308.1964","FILE":"3595773","TLE_LINE2":"2 48326  53.0540 308.1964 0001679  64.2764 295.8399 15.06396188 79799","OBJECT_TYPE":"PAYLOAD","MEAN_ANOMALY":"295.8399","TLE_LINE1":"1 48326U 21036BC  22280.78200507  .00001427  00000-0  11470-3 0  9998"},{"MEAN_ANOMALY":"306.1092","TLE_LINE1":"1 48327U 21036BD  22280.77832253  .00002118  00000-0  16107-3 0  9997","TLE_LINE2":"2 48327  53.0539 308.2117 0001848  54.0068 306.1092 15.06397917 79798","OBJECT_TYPE":"PAYLOAD","ARG_OF_PERICENTER":"54.0068","COUNTRY_CODE":"US","OBJECT_NAME":"STARLINK-2502","MEAN_ELEMENT_THEORY":"SGP4","ECCENTRICITY":"0.00018480","TIME_SYSTEM":"UTC","REV_AT_EPOCH":"7979","RA_OF_ASC_NODE":"308.2117","FILE":"3595773","REF_FRAME":"TEME","MEAN_MOTION":"15.06397917","RCS_SIZE":"LARGE","LAUNCH_DATE":"2021-04-29","CENTER_NAME":"EARTH","PERIOD":"95.592","SEMIMAJOR_AXIS":"6925.355","OBJECT_ID":"2021-036BD","EPHEMERIS_TYPE":"0","MEAN_MOTION_DDOT":"0.0000000000000","APOAPSIS":"548.500","EPOCH":"2022-10-07T18:40:47.066592","GP_ID":"214435173","DECAY_DATE":null,"CLASSIFICATION_TYPE":"U","NORAD_CAT_ID":"48327","PERIAPSIS":"545.940","INCLINATION":"53.0539","MEAN_MOTION_DOT":"0.00002118","SITE":"AFETR","BSTAR":"0.00016107000000","ELEMENT_SET_NO":"999"},{"SEMIMAJOR_AXIS":"6925.364","OBJECT_ID":"2021-036BE","EPHEMERIS_TYPE":"0","PERIOD":"95.592","CENTER_NAME":"EARTH","ELEMENT_SET_NO":"999","BSTAR":"0.00006256600000","SITE":"AFETR","INCLINATION":"53.0534","PERIAPSIS":"546.065","NORAD_CAT_ID":"48328","MEAN_MOTION_DOT":"0.00000650","GP_ID":"214433921","EPOCH":"2022-10-07T18:34:06.446208","DECAY_DATE":null,"CLASSIFICATION_TYPE":"U","APOAPSIS":"548.393","MEAN_MOTION_DDOT":"0.0000000000000","OBJECT_TYPE":"PAYLOAD","TLE_LINE2":"2 48328  53.0534 308.2248 0001681  52.3270 307.7871 15.06394999 79799","TLE_LINE1":"1 48328U 21036BE  22280.77368572  .00000650  00000-0  62566-4 0  9996","MEAN_ANOMALY":"307.7871","LAUNCH_DATE":"2021-04-29","MEAN_MOTION":"15.06394999","REF_FRAME":"TEME","RCS_SIZE":"LARGE","TIME_SYSTEM":"UTC","ECCENTRICITY":"0.00016810","FILE":"3595773","REV_AT_EPOCH":"7979","RA_OF_ASC_NODE":"308.2248","ARG_OF_PERICENTER":"52.3270","COUNTRY_CODE":"US","MEAN_ELEMENT_THEORY":"SGP4","OBJECT_NAME":"STARLINK-2504"},{"CENTER_NAME":"EARTH","PERIOD":"95.592","SEMIMAJOR_AXIS":"6925.344","EPHEMERIS_TYPE":"0","OBJECT_ID":"2021-036BF","MEAN_MOTION_DDOT":"0.0000000000000","APOAPSIS":"548.624","EPOCH":"2022-10-07T18:30:09.938304","GP_ID":"214434171","DECAY_DATE":null,"CLASSIFICATION_TYPE":"U","PERIAPSIS":"545.795","NORAD_CAT_ID":"48329","INCLINATION":"53.0538","MEAN_MOTION_DOT":"0.00002499","SITE":"AFETR","BSTAR":"0.00018658000000","ELEMENT_SET_NO":"999","MEAN_ANOMALY":"320.0181","TLE_LINE1":"1 48329U 21036BF  22280.77094836  .00002499  00000-0  18658-3 0  9991","TLE_LINE2":"2 48329  53.0538 308.2369 0002043  40.0958 320.0181 15.06401355 79795","OBJECT_TYPE":"PAYLOAD","ARG_OF_PERICENTER":"40.0958","COUNTRY_CODE":"US","OBJECT_NAME":"STARLINK-2510","MEAN_ELEMENT_THEORY":"SGP4","ECCENTRICITY":"0.00020430","TIME_SYSTEM":"UTC","REV_AT_EPOCH":"7979","RA_OF_ASC_NODE":"308.2369","FILE":"3595773","REF_FRAME":"TEME","MEAN_MOTION":"15.06401355","RCS_SIZE":"LARGE","LAUNCH_DATE":"2021-04-29"},{"MEAN_ANOMALY":"309.6610","TLE_LINE1":"1 48330U 21036BG  22280.56821975 -.00000273  00000-0  55582-6 0  9991","TLE_LINE2":"2 48330  53.0552 309.1503 0001666  50.4526 309.6610 15.06399263 79760","OBJECT_TYPE":"PAYLOAD","OBJECT_NAME":"STARLINK-2501","MEAN_ELEMENT_THEORY":"SGP4","COUNTRY_CODE":"US","ARG_OF_PERICENTER":"50.4526","REV_AT_EPOCH":"7976","RA_OF_ASC_NODE":"309.1503","FILE":"3595773","ECCENTRICITY":"0.00016660","TIME_SYSTEM":"UTC","RCS_SIZE":"LARGE","REF_FRAME":"TEME","MEAN_MOTION":"15.06399263","LAUNCH_DATE":"2021-04-29","CENTER_NAME":"EARTH","PERIOD":"95.592","EPHEMERIS_TYPE":"0","OBJECT_ID":"2021-036BG","SEMIMAJOR_AXIS":"6925.351","APOAPSIS":"548.370","MEAN_MOTION_DDOT":"0.0000000000000","DECAY_DATE":null,"CLASSIFICATION_TYPE":"U","GP_ID":"214434923","EPOCH":"2022-10-07T13:38:14.186400","MEAN_MOTION_DOT":"-0.00000273","PERIAPSIS":"546.062","NORAD_CAT_ID":"48330","INCLINATION":"53.0552","SITE":"AFETR","ELEMENT_SET_NO":"999","BSTAR":"0.00000055582000"},{"CENTER_NAME":"EARTH","SEMIMAJOR_AXIS":"6925.347","EPHEMERIS_TYPE":"0","OBJECT_ID":"2021-036BH","PERIOD":"95.592","EPOCH":"2022-10-07T13:32:55.581216","GP_ID":"214435674","DECAY_DATE":null,"CLASSIFICATION_TYPE":"U","APOAPSIS":"548.636","MEAN_MOTION_DDOT":"0.0000000000000","SITE":"AFETR","BSTAR":"0.00010133000000","ELEMENT_SET_NO":"999","PERIAPSIS":"545.787","NORAD_CAT_ID":"48331","INCLINATION":"53.0554","MEAN_MOTION_DOT":"0.00001228","MEAN_ANOMALY":"307.5964","TLE_LINE1":"1 48331U 21036BH  22280.56453219  .00001228  00000-0  10133-3 0  9994","OBJECT_TYPE":"PAYLOAD","TLE_LINE2":"2 48331  53.0554 309.1661 0002057  52.5212 307.5964 15.06400653 79763","ECCENTRICITY":"0.00020570","TIME_SYSTEM":"UTC","REV_AT_EPOCH":"7976","RA_OF_ASC_NODE":"309.1661","FILE":"3595773","COUNTRY_CODE":"US","ARG_OF_PERICENTER":"52.5212","OBJECT_NAME":"STARLINK-2514","MEAN_ELEMENT_THEORY":"SGP4","LAUNCH_DATE":"2021-04-29","REF_FRAME":"TEME","MEAN_MOTION":"15.06400653","RCS_SIZE":"LARGE"},{"NORAD_CAT_ID":"48332","PERIAPSIS":"546.136","INCLINATION":"53.0549","MEAN_MOTION_DOT":"-0.00000237","SITE":"AFETR","ELEMENT_SET_NO":"999","BSTAR":"0.00000300620000","MEAN_MOTION_DDOT":"0.0000000000000","APOAPSIS":"548.275","GP_ID":"214434422","EPOCH":"2022-10-07T13:31:33.710304","CLASSIFICATION_TYPE":"U","DECAY_DATE":null,"PERIOD":"95.592","SEMIMAJOR_AXIS":"6925.340","OBJECT_ID":"2021-036BJ","EPHEMERIS_TYPE":"0","CENTER_NAME":"EARTH","REF_FRAME":"TEME","MEAN_MOTION":"15.06402683","RCS_SIZE":"LARGE","LAUNCH_DATE":"2021-04-29","COUNTRY_CODE":"US","ARG_OF_PERICENTER":"59.6243","OBJECT_NAME":"STARLINK-2511","MEAN_ELEMENT_THEORY":"SGP4","ECCENTRICITY":"0.00015440","TIME_SYSTEM":"UTC","RA_OF_ASC_NODE":"309.1490","REV_AT_EPOCH":"7976","FILE":"3595773","TLE_LINE2":"2 48332  53.0549 309.1490 0001544  59.6243 300.4898 15.06402683 79763","OBJECT_TYPE":"PAYLOAD","MEAN_ANOMALY":"300.4898","TLE_LINE1":"1 48332U 21036BJ  22280.56358461 -.00000237  00000-0  30062-5 0  9993"},{"APOAPSIS":"548.779","MEAN_MOTION_DDOT":"0.0000000000000","EPOCH":"2022-10-07T13:22:18.675840","GP_ID":"214434672","CLASSIFICATION_TYPE":"U","DECAY_DATE":null,"PERIAPSIS":"545.618","NORAD_CAT_ID":"48333","INCLINATION":"53.0554","MEAN_MOTION_DOT":"-0.00000159","SITE":"AFETR","ELEMENT_SET_NO":"999","BSTAR":"0.00000826290000","CENTER_NAME":"EARTH","PERIOD":"95.592","SEMIMAJOR_AXIS":"6925.333","OBJECT_ID":"2021-036BK","EPHEMERIS_TYPE":"0","ARG_OF_PERICENTER":"42.3164","COUNTRY_CODE":"US","OBJECT_NAME":"STARLINK-2518","MEAN_ELEMENT_THEORY":"SGP4","ECCENTRICITY":"0.00022820","TIME_SYSTEM":"UTC","REV_AT_EPOCH":"7976","RA_OF_ASC_NODE":"309.1951","FILE":"3595773","REF_FRAME":"TEME","MEAN_MOTION":"15.06404946","RCS_SIZE":"LARGE","LAUNCH_DATE":"2021-04-29","MEAN_ANOMALY":"317.8001","TLE_LINE1":"1 48333U 21036BK  22280.55716060 -.00000159  00000-0  82629-5 0  9995","TLE_LINE2":"2 48333  53.0554 309.1951 0002282  42.3164 317.8001 15.06404946 79765","OBJECT_TYPE":"PAYLOAD"},{"SITE":"AFETR","ELEMENT_SET_NO":"999","BSTAR":"0.00013744000000","MEAN_MOTION_DOT":"0.00001767","NORAD_CAT_ID":"48334","PERIAPSIS":"546.316","INCLINATION":"53.0556","CLASSIFICATION_TYPE":"U","DECAY_DATE":null,"GP_ID":"214435424","EPOCH":"2022-10-07T13:16:59.966976","APOAPSIS":"548.087","MEAN_MOTION_DDOT":"0.0000000000000","OBJECT_ID":"2021-036BL","EPHEMERIS_TYPE":"0","SEMIMAJOR_AXIS":"6925.336","PERIOD":"95.592","CENTER_NAME":"EARTH","LAUNCH_DATE":"2021-04-29","RCS_SIZE":"LARGE","REF_FRAME":"TEME","MEAN_MOTION":"15.06404012","REV_AT_EPOCH":"7976","RA_OF_ASC_NODE":"309.1979","FILE":"3595773","ECCENTRICITY":"0.00012790","TIME_SYSTEM":"UTC","OBJECT_NAME":"STARLINK-2470","MEAN_ELEMENT_THEORY":"SGP4","ARG_OF_PERICENTER":"78.9196","COUNTRY_CODE":"US","OBJECT_TYPE":"PAYLOAD","TLE_LINE2":"2 48334  53.0556 309.1979 0001279  78.9196 281.1937 15.06404012 79768","MEAN_ANOMALY":"281.1937","TLE_LINE1":"1 48334U 21036BL  22280.55347184  .00001767  00000-0  13744-3 0  9998"},{"PERIOD":"95.592","SEMIMAJOR_AXIS":"6925.354","EPHEMERIS_TYPE":"0","OBJECT_ID":"2021-036BM","CENTER_NAME":"EARTH","PERIAPSIS":"546.110","NORAD_CAT_ID":"48335","INCLINATION":"53.0543","MEAN_MOTION_DOT":"0.00001446","SITE":"AFETR","ELEMENT_SET_NO":"999","BSTAR":"0.00011598000000","APOAPSIS":"548.328","MEAN_MOTION_DDOT":"0.0000000000000","GP_ID":"214412512","EPOCH":"2022-10-07T19:33:51.218496","CLASSIFICATION_TYPE":"U","DECAY_DATE":null,"TLE_LINE2":"2 48335  53.0543 308.0414 0001601  60.1277 299.9871 15.06398252 80392","OBJECT_TYPE":"PAYLOAD","MEAN_ANOMALY":"299.9871","TLE_LINE1":"1 48335U 21036BM  22280.81517614  .00001446  00000-0  11598-3 0  9994","REF_FRAME":"TEME","MEAN_MOTION":"15.06398252","RCS_SIZE":"LARGE","LAUNCH_DATE":"2021-04-29","COUNTRY_CODE":"US","ARG_OF_PERICENTER":"60.1277","OBJECT_NAME":"STARLINK-2441","MEAN_ELEMENT_THEORY":"SGP4","ECCENTRICITY":"0.00016010","TIME_SYSTEM":"UTC","REV_AT_EPOCH":"8039","RA_OF_ASC_NODE":"308.0414","FILE":"3595728"}];
